start=new Date('2022-05-30T00:00:00.000Z').valueOf();
sats=[{"CLASSIFICATION_TYPE":"U","MEAN_MOTION":"15.08828567","REV_AT_EPOCH":"1527","TLE_LINE1":"1 51735U 22016X   22149.94502786 -.00000972  00000-0 -43005-4 0  9997","ARG_OF_PERICENTER":"56.1798","EPHEMERIS_TYPE":"0","LAUNCH_DATE":"2022-02-21","PERIAPSIS":"538.464","TIME_SYSTEM":"UTC","OBJECT_ID":"2022-016X","ECCENTRICITY":"0.00019030","RCS_SIZE":"LARGE","MEAN_ELEMENT_THEORY":"SGP4","MEAN_MOTION_DOT":"-0.00000972","DECAY_DATE":null,"CENTER_NAME":"EARTH","SEMIMAJOR_AXIS":"6917.915","INCLINATION":"53.2210","APOAPSIS":"541.097","OBJECT_NAME":"STARLINK-3517","MEAN_ANOMALY":"303.9375","RA_OF_ASC_NODE":"33.0202","ELEMENT_SET_NO":"999","REF_FRAME":"TEME","NORAD_CAT_ID":"51735","PERIOD":"95.438","COUNTRY_CODE":"US","OBJECT_TYPE":"PAYLOAD","MEAN_MOTION_DDOT":"0.0000000000000","FILE":"3471362","GP_ID":"204892615","SITE":"AFETR","BSTAR":"-0.00004300500000","EPOCH":"2022-05-29T22:40:50.407104","TLE_LINE2":"2 51735  53.2210  33.0202 0001903  56.1798 303.9375 15.08828567 15270"},{"MEAN_MOTION_DOT":"0.00000188","DECAY_DATE":null,"OBJECT_ID":"2022-016Y","MEAN_ELEMENT_THEORY":"SGP4","RCS_SIZE":"LARGE","ECCENTRICITY":"0.00018930","TIME_SYSTEM":"UTC","PERIAPSIS":"538.452","LAUNCH_DATE":"2022-02-21","ARG_OF_PERICENTER":"45.0081","EPHEMERIS_TYPE":"0","REV_AT_EPOCH":"1526","TLE_LINE1":"1 51736U 22016Y   22149.93031005  .00000188  00000-0  29916-4 0  9990","CLASSIFICATION_TYPE":"U","MEAN_MOTION":"15.08834840","BSTAR":"0.00002991600000","EPOCH":"2022-05-29T22:19:38.788320","TLE_LINE2":"2 51736  53.2155  33.0984 0001893  45.0081 315.1064 15.08834840 15266","SITE":"AFETR","FILE":"3471362","GP_ID":"204892862","COUNTRY_CODE":"US","OBJECT_TYPE":"PAYLOAD","PERIOD":"95.438","MEAN_MOTION_DDOT":"0.0000000000000","REF_FRAME":"TEME","NORAD_CAT_ID":"51736","ELEMENT_SET_NO":"999","OBJECT_NAME":"STARLINK-3447","MEAN_ANOMALY":"315.1064","APOAPSIS":"541.071","RA_OF_ASC_NODE":"33.0984","SEMIMAJOR_AXIS":"6917.896","CENTER_NAME":"EARTH","INCLINATION":"53.2155"},{"OBJECT_ID":"2022-016Z","RCS_SIZE":"LARGE","ECCENTRICITY":"0.00019430","MEAN_ELEMENT_THEORY":"SGP4","MEAN_MOTION_DOT":"-0.00001394","DECAY_DATE":null,"LAUNCH_DATE":"2022-02-21","PERIAPSIS":"538.404","TIME_SYSTEM":"UTC","REV_AT_EPOCH":"1526","TLE_LINE1":"1 51737U 22016Z   22149.94133918 -.00001394  00000-0 -69484-4 0  9994","ARG_OF_PERICENTER":"67.0665","EPHEMERIS_TYPE":"0","CLASSIFICATION_TYPE":"U","MEAN_MOTION":"15.08838998","GP_ID":"204891615","FILE":"3471362","SITE":"AFETR","EPOCH":"2022-05-29T22:35:31.705152","BSTAR":"-0.00006948400000","TLE_LINE2":"2 51737  53.2153  33.0520 0001943  67.0665 293.0532 15.08838998 15261","ELEMENT_SET_NO":"999","NORAD_CAT_ID":"51737","REF_FRAME":"TEME","OBJECT_TYPE":"PAYLOAD","COUNTRY_CODE":"US","MEAN_MOTION_DDOT":"0.0000000000000","PERIOD":"95.438","APOAPSIS":"541.093","OBJECT_NAME":"STARLINK-3509","MEAN_ANOMALY":"293.0532","RA_OF_ASC_NODE":"33.0520","SEMIMAJOR_AXIS":"6917.883","CENTER_NAME":"EARTH","INCLINATION":"53.2153"},{"LAUNCH_DATE":"2022-02-21","TIME_SYSTEM":"UTC","PERIAPSIS":"538.482","OBJECT_ID":"2022-016AA","MEAN_ELEMENT_THEORY":"SGP4","RCS_SIZE":"LARGE","ECCENTRICITY":"0.00018440","MEAN_MOTION_DOT":"-0.00001452","DECAY_DATE":null,"CLASSIFICATION_TYPE":"U","MEAN_MOTION":"15.08835946","REV_AT_EPOCH":"1526","TLE_LINE1":"1 51738U 22016AA  22149.92294784 -.00001452  00000-0 -73121-4 0  9990","EPHEMERIS_TYPE":"0","ARG_OF_PERICENTER":"46.6283","ELEMENT_SET_NO":"999","COUNTRY_CODE":"US","OBJECT_TYPE":"PAYLOAD","MEAN_MOTION_DDOT":"0.0000000000000","PERIOD":"95.438","NORAD_CAT_ID":"51738","REF_FRAME":"TEME","SITE":"AFETR","FILE":"3471362","GP_ID":"204891865","EPOCH":"2022-05-29T22:09:02.693376","BSTAR":"-0.00007312100000","TLE_LINE2":"2 51738  53.2162  33.1306 0001844  46.6283 313.4862 15.08835946 15267","CENTER_NAME":"EARTH","SEMIMAJOR_AXIS":"6917.893","INCLINATION":"53.2162","OBJECT_NAME":"STARLINK-3515","MEAN_ANOMALY":"313.4862","APOAPSIS":"541.033","RA_OF_ASC_NODE":"33.1306"},{"LAUNCH_DATE":"2022-02-21","PERIAPSIS":"538.522","TIME_SYSTEM":"UTC","OBJECT_ID":"2022-016AB","RCS_SIZE":"LARGE","ECCENTRICITY":"0.00018110","MEAN_ELEMENT_THEORY":"SGP4","MEAN_MOTION_DOT":"-0.00001990","DECAY_DATE":null,"CLASSIFICATION_TYPE":"U","MEAN_MOTION":"15.08830383","TLE_LINE1":"1 51739U 22016AB  22149.93398989 -.00001990  00000-0 -10698-3 0  9990","REV_AT_EPOCH":"1526","EPHEMERIS_TYPE":"0","ARG_OF_PERICENTER":"55.7438","ELEMENT_SET_NO":"999","REF_FRAME":"TEME","NORAD_CAT_ID":"51739","PERIOD":"95.438","COUNTRY_CODE":"US","OBJECT_TYPE":"PAYLOAD","MEAN_MOTION_DDOT":"0.0000000000000","FILE":"3471362","GP_ID":"204892115","SITE":"AFETR","EPOCH":"2022-05-29T22:24:56.726496","BSTAR":"-0.00010698000000","TLE_LINE2":"2 51739  53.2152  33.0817 0001811  55.7438 304.3725 15.08830383 15267","CENTER_NAME":"EARTH","SEMIMAJOR_AXIS":"6917.910","INCLINATION":"53.2152","APOAPSIS":"541.028","MEAN_ANOMALY":"304.3725","OBJECT_NAME":"STARLINK-3516","RA_OF_ASC_NODE":"33.0817"},{"ELEMENT_SET_NO":"999","OBJECT_TYPE":"PAYLOAD","COUNTRY_CODE":"US","PERIOD":"95.438","MEAN_MOTION_DDOT":"0.0000000000000","NORAD_CAT_ID":"51740","REF_FRAME":"TEME","SITE":"AFETR","FILE":"3471362","GP_ID":"204892362","EPOCH":"2022-05-29T21:58:26.876640","BSTAR":"-0.00013124000000","TLE_LINE2":"2 51740  53.2159  33.1651 0001809  56.8919 303.2247 15.08831178 15266","SEMIMAJOR_AXIS":"6917.907","CENTER_NAME":"EARTH","INCLINATION":"53.2159","OBJECT_NAME":"STARLINK-3500","MEAN_ANOMALY":"303.2247","APOAPSIS":"541.024","RA_OF_ASC_NODE":"33.1651","LAUNCH_DATE":"2022-02-21","TIME_SYSTEM":"UTC","PERIAPSIS":"538.521","OBJECT_ID":"2022-016AC","MEAN_ELEMENT_THEORY":"SGP4","ECCENTRICITY":"0.00018090","RCS_SIZE":"LARGE","MEAN_MOTION_DOT":"-0.00002376","DECAY_DATE":null,"CLASSIFICATION_TYPE":"U","MEAN_MOTION":"15.08831178","TLE_LINE1":"1 51740U 22016AC  22149.91558885 -.00002376  00000-0 -13124-3 0  9999","REV_AT_EPOCH":"1526","EPHEMERIS_TYPE":"0","ARG_OF_PERICENTER":"56.8919"},{"SITE":"AFETR","FILE":"3471362","GP_ID":"204891115","EPOCH":"2022-05-29T22:14:20.884704","BSTAR":"-0.00006715600000","TLE_LINE2":"2 51741  53.2161  33.1154 0002051  52.8973 307.2206 15.08833555 15264","ELEMENT_SET_NO":"999","OBJECT_TYPE":"PAYLOAD","COUNTRY_CODE":"US","MEAN_MOTION_DDOT":"0.0000000000000","PERIOD":"95.438","NORAD_CAT_ID":"51741","REF_FRAME":"TEME","OBJECT_NAME":"STARLINK-3520","MEAN_ANOMALY":"307.2206","APOAPSIS":"541.184","RA_OF_ASC_NODE":"33.1154","CENTER_NAME":"EARTH","SEMIMAJOR_AXIS":"6917.900","INCLINATION":"53.2161","OBJECT_ID":"2022-016AD","MEAN_ELEMENT_THEORY":"SGP4","ECCENTRICITY":"0.00020510","RCS_SIZE":"LARGE","MEAN_MOTION_DOT":"-0.00001357","DECAY_DATE":null,"LAUNCH_DATE":"2022-02-21","TIME_SYSTEM":"UTC","PERIAPSIS":"538.346","REV_AT_EPOCH":"1526","TLE_LINE1":"1 51741U 22016AD  22149.92663061 -.00001357  00000-0 -67156-4 0  9997","EPHEMERIS_TYPE":"0","ARG_OF_PERICENTER":"52.8973","CLASSIFICATION_TYPE":"U","MEAN_MOTION":"15.08833555"},{"MEAN_MOTION":"15.08835126","CLASSIFICATION_TYPE":"U","REV_AT_EPOCH":"1526","TLE_LINE1":"1 51742U 22016AE  22149.91190519 -.00001877  00000-0 -99886-4 0  9992","ARG_OF_PERICENTER":"61.0559","EPHEMERIS_TYPE":"0","LAUNCH_DATE":"2022-02-21","PERIAPSIS":"538.549","TIME_SYSTEM":"UTC","ECCENTRICITY":"0.00017510","RCS_SIZE":"LARGE","MEAN_ELEMENT_THEORY":"SGP4","OBJECT_ID":"2022-016AE","DECAY_DATE":null,"MEAN_MOTION_DOT":"-0.00001877","INCLINATION":"53.2165","CENTER_NAME":"EARTH","SEMIMAJOR_AXIS":"6917.895","RA_OF_ASC_NODE":"33.1815","APOAPSIS":"540.972","MEAN_ANOMALY":"299.0608","OBJECT_NAME":"STARLINK-3521","ELEMENT_SET_NO":"999","NORAD_CAT_ID":"51742","REF_FRAME":"TEME","COUNTRY_CODE":"US","MEAN_MOTION_DDOT":"0.0000000000000","OBJECT_TYPE":"PAYLOAD","PERIOD":"95.438","FILE":"3471362","GP_ID":"204891365","SITE":"AFETR","TLE_LINE2":"2 51742  53.2165  33.1815 0001751  61.0559 299.0608 15.08835126 15261","BSTAR":"-0.00009988600000","EPOCH":"2022-05-29T21:53:08.608416"},{"COUNTRY_CODE":"US","MEAN_MOTION_DDOT":"0.0000000000000","OBJECT_TYPE":"PAYLOAD","PERIOD":"94.403","REF_FRAME":"TEME","NORAD_CAT_ID":"51743","ELEMENT_SET_NO":"999","TLE_LINE2":"2 51743  53.2160  23.7795 0001987  73.4487 286.6731 15.25377142 15398","BSTAR":"-0.01321900000000","EPOCH":"2022-05-29T22:12:33.892992","SITE":"AFETR","GP_ID":"204892616","FILE":"3471362","INCLINATION":"53.2160","SEMIMAJOR_AXIS":"6867.790","CENTER_NAME":"EARTH","RA_OF_ASC_NODE":"23.7795","MEAN_ANOMALY":"286.6731","OBJECT_NAME":"STARLINK-3512","APOAPSIS":"491.020","TIME_SYSTEM":"UTC","PERIAPSIS":"488.291","LAUNCH_DATE":"2022-02-21","DECAY_DATE":null,"MEAN_MOTION_DOT":"-0.00323912","MEAN_ELEMENT_THEORY":"SGP4","RCS_SIZE":"LARGE","ECCENTRICITY":"0.00019870","OBJECT_ID":"2022-016AF","MEAN_MOTION":"15.25377142","CLASSIFICATION_TYPE":"U","EPHEMERIS_TYPE":"0","ARG_OF_PERICENTER":"73.4487","REV_AT_EPOCH":"1539","TLE_LINE1":"1 51743U 22016AF  22149.92539228 -.00323912  00000-0 -13219-1 0  9998"},{"BSTAR":"-0.00004204500000","EPOCH":"2022-05-29T21:43:55.176672","TLE_LINE2":"2 51744  53.2177  33.1972 0001855  58.9427 301.1747 15.08832871 15267","SITE":"AFETR","GP_ID":"204892863","FILE":"3471362","COUNTRY_CODE":"US","OBJECT_TYPE":"PAYLOAD","MEAN_MOTION_DDOT":"0.0000000000000","PERIOD":"95.438","NORAD_CAT_ID":"51744","REF_FRAME":"TEME","ELEMENT_SET_NO":"999","MEAN_ANOMALY":"301.1747","OBJECT_NAME":"STARLINK-3452","APOAPSIS":"541.050","RA_OF_ASC_NODE":"33.1972","CENTER_NAME":"EARTH","SEMIMAJOR_AXIS":"6917.902","INCLINATION":"53.2177","MEAN_MOTION_DOT":"-0.00000957","DECAY_DATE":null,"OBJECT_ID":"2022-016AG","MEAN_ELEMENT_THEORY":"SGP4","RCS_SIZE":"LARGE","ECCENTRICITY":"0.00018550","TIME_SYSTEM":"UTC","PERIAPSIS":"538.484","LAUNCH_DATE":"2022-02-21","ARG_OF_PERICENTER":"58.9427","EPHEMERIS_TYPE":"0","TLE_LINE1":"1 51744U 22016AG  22149.90549973 -.00000957  00000-0 -42045-4 0  9998","REV_AT_EPOCH":"1526","CLASSIFICATION_TYPE":"U","MEAN_MOTION":"15.08832871"}];
